{"type": "FeatureCollection", "features": [ {"type": "Feature", "properties": {"norad_id": 66939, "name": "STARLINK-36154", "group": "last-30-days", "lat": -39.09518815626415, "lon": -55.929738749937016, "alt_km": 407.1332757692353, "timestamp": "2025-12-26T13:39:17.666919+00:00", "meta": {"OBJECT_NAME": "STARLINK-36154", "OBJECT_ID": "2025-286Q", "EPOCH": "2025-12-26T06:00:02.999808", "MEAN_MOTION": 15.56504338, "ECCENTRICITY": 0.00014403, "INCLINATION": 53.1593, "RA_OF_ASC_NODE": 343.1418, "ARG_OF_PERICENTER": 93.128, "MEAN_ANOMALY": 227.6959, "EPHEMERIS_TYPE": 0, "CLASSIFICATION_TYPE": "U", "NORAD_CAT_ID": 66939, "ELEMENT_SET_NO": 999, "REV_AT_EPOCH": 416, "BSTAR": -0.031720394, "MEAN_MOTION_DOT": -0.02044159, "MEAN_MOTION_DDOT": 0}, "tle": {"line1": "1 66939U 25286Q   25360.25003472 -.02044159  00000+0 -31720-1 0  9995", "line2": "2 66939  53.1593 343.1418 0001440  93.1280 227.6959 15.56504338  4168"}}, "geometry": {"type": "Point", "coordinates": [-55.929738749937016, -39.09518815626415]}}, {"type": "Feature", "properties": {"norad_id": 66940, "name": "STARLINK-36121", "group": "last-30-days", "lat": -37.863770059865466, "lon": -54.057404168690496, "alt_km": 406.96831381592347, "timestamp": "2025-12-26T13:39:17.666929+00:00", "meta": {"OBJECT_NAME": "STARLINK-36121", "OBJECT_ID": "2025-286R", "EPOCH": "2025-12-26T06:00:02.999808", "MEAN_MOTION": 15.5651202, "ECCENTRICITY": 0.00013348, "INCLINATION": 53.1592, "RA_OF_ASC_NODE": 343.1376, "ARG_OF_PERICENTER": 88.4337, "MEAN_ANOMALY": 234.3082, "EPHEMERIS_TYPE": 0, "CLASSIFICATION_TYPE": "U", "NORAD_CAT_ID": 66940, "ELEMENT_SET_NO": 999, "REV_AT_EPOCH": 416, "BSTAR": -0.031975162, "MEAN_MOTION_DOT": -0.02059277, "MEAN_MOTION_DDOT": 0}, "tle": {"line1": "1 66940U 25286R   25360.25003472 -.02059277  00000+0 -31975-1 0  9996", "line2": "2 66940  53.1592 343.1376 0001334  88.4337 234.3082 15.56512020  4163"}}, "geometry": {"type": "Point", "coordinates": [-54.057404168690496, -37.863770059865466]}}, {"type": "Feature", "properties": {"norad_id": 66941, "name": "STARLINK-36088", "group": "last-30-days", "lat": -21.338657223656725, "lon": -35.48125989302805, "alt_km": 399.9132106965062, "timestamp": "2025-12-26T13:39:17.666939+00:00", "meta": {"OBJECT_NAME": "STARLINK-36088", "OBJECT_ID": "2025-286S", "EPOCH": "2025-12-26T06:00:02.999808", "MEAN_MOTION": 15.58419852, "ECCENTRICITY": 0.00012136, "INCLINATION": 53.1592, "RA_OF_ASC_NODE": 343.0949, "ARG_OF_PERICENTER": 88.147, "MEAN_ANOMALY": 255.4564, "EPHEMERIS_TYPE": 0, "CLASSIFICATION_TYPE": "U", "NORAD_CAT_ID": 66941, "ELEMENT_SET_NO": 999, "REV_AT_EPOCH": 416, "BSTAR": -0.029108983, "MEAN_MOTION_DOT": -0.01982533, "MEAN_MOTION_DDOT": 0}, "tle": {"line1": "1 66941U 25286S   25360.25003472 -.01982533  00000+0 -29109-1 0  9992", "line2": "2 66941  53.1592 343.0949 0001213  88.1470 255.4564 15.58419852  4160"}}, "geometry": {"type": "Point", "coordinates": [-35.48125989302805, -21.338657223656725]}}, {"type": "Feature", "properties": {"norad_id": 66942, "name": "STARLINK-36100", "group": "last-30-days", "lat": -36.605478840973866, "lon": -52.24985284328813, "alt_km": 406.8556391825341, "timestamp": "2025-12-26T13:39:17.666948+00:00", "meta": {"OBJECT_NAME": "STARLINK-36100", "OBJECT_ID": "2025-286T", "EPOCH": "2025-12-26T06:00:02.999808", "MEAN_MOTION": 15.56511593, "ECCENTRICITY": 0.00012881, "INCLINATION": 53.1593, "RA_OF_ASC_NODE": 343.1334, "ARG_OF_PERICENTER": 88.0086, "MEAN_ANOMALY": 236.6499, "EPHEMERIS_TYPE": 0, "CLASSIFICATION_TYPE": "U", "NORAD_CAT_ID": 66942, "ELEMENT_SET_NO": 999, "REV_AT_EPOCH": 409, "BSTAR": -0.031948691, "MEAN_MOTION_DOT": -0.02057695, "MEAN_MOTION_DDOT": 0}, "tle": {"line1": "1 66942U 25286T   25360.25003472 -.02057695  00000+0 -31949-1 0  9991", "line2": "2 66942  53.1593 343.1334 0001288  88.0086 236.6499 15.56511593  4098"}}, "geometry": {"type": "Point", "coordinates": [-52.24985284328813, -36.605478840973866]}}, {"type": "Feature", "properties": {"norad_id": 66943, "name": "STARLINK-36109", "group": "last-30-days", "lat": -35.3192790246668, "lon": -50.49898936473034, "alt_km": 406.7987348683855, "timestamp": "2025-12-26T13:39:17.666958+00:00", "meta": {"OBJECT_NAME": "STARLINK-36109", "OBJECT_ID": "2025-286U", "EPOCH": "2025-12-26T06:00:02.999808", "MEAN_MOTION": 15.56513731, "ECCENTRICITY": 0.00012456, "INCLINATION": 53.1593, "RA_OF_ASC_NODE": 343.1296, "ARG_OF_PERICENTER": 94.8921, "MEAN_ANOMALY": 231.6817, "EPHEMERIS_TYPE": 0, "CLASSIFICATION_TYPE": "U", "NORAD_CAT_ID": 66943, "ELEMENT_SET_NO": 999, "REV_AT_EPOCH": 409, "BSTAR": -0.031960311, "MEAN_MOTION_DOT": -0.02058484, "MEAN_MOTION_DDOT": 0}, "tle": {"line1": "1 66943U 25286U   25360.25003472 -.02058484  00000+0 -31960-1 0  9992", "line2": "2 66943  53.1593 343.1296 0001245  94.8921 231.6817 15.56513731  4097"}}, "geometry": {"type": "Point", "coordinates": [-50.49898936473034, -35.3192790246668]}}, {"type": "Feature", "properties": {"norad_id": 66944, "name": "STARLINK-36112", "group": "last-30-days", "lat": -34.01105399633958, "lon": -48.807776503050945, "alt_km": 406.7429260746312, "timestamp": "2025-12-26T13:39:17.666968+00:00", "meta": {"OBJECT_NAME": "STARLINK-36112", "OBJECT_ID": "2025-286V", "EPOCH": "2025-12-26T06:00:02.999808", "MEAN_MOTION": 15.56514591, "ECCENTRICITY": 0.00012893, "INCLINATION": 53.1593, "RA_OF_ASC_NODE": 343.1248, "ARG_OF_PERICENTER": 96.0646, "MEAN_ANOMALY": 232.4242, "EPHEMERIS_TYPE": 0, "CLASSIFICATION_TYPE": "U", "NORAD_CAT_ID": 66944, "ELEMENT_SET_NO": 999, "REV_AT_EPOCH": 416, "BSTAR": -0.031987212, "MEAN_MOTION_DOT": -0.02060117, "MEAN_MOTION_DDOT": 0}, "tle": {"line1": "1 66944U 25286V   25360.25003472 -.02060117  00000+0 -31987-1 0  9998", "line2": "2 66944  53.1593 343.1248 0001289  96.0646 232.4242 15.56514591  4165"}}, "geometry": {"type": "Point", "coordinates": [-48.807776503050945, -34.01105399633958]}}, {"type": "Feature", "properties": {"norad_id": 66945, "name": "STARLINK-36110", "group": "last-30-days", "lat": -32.67914944768203, "lon": -47.165910571935136, "alt_km": 406.61503057130085, "timestamp": "2025-12-26T13:39:17.666980+00:00", "meta": {"OBJECT_NAME": "STARLINK-36110", "OBJECT_ID": "2025-286W", "EPOCH": "2025-12-26T06:00:02.999808", "MEAN_MOTION": 15.5651366, "ECCENTRICITY": 0.00012475, "INCLINATION": 53.1594, "RA_OF_ASC_NODE": 343.1211, "ARG_OF_PERICENTER": 95.3522, "MEAN_ANOMALY": 235.0529, "EPHEMERIS_TYPE": 0, "CLASSIFICATION_TYPE": "U", "NORAD_CAT_ID": 66945, "ELEMENT_SET_NO": 999, "REV_AT_EPOCH": 416, "BSTAR": -0.031937613, "MEAN_MOTION_DOT": -0.02057175, "MEAN_MOTION_DDOT": 0}, "tle": {"line1": "1 66945U 25286W   25360.25003472 -.02057175  00000+0 -31938-1 0  9995", "line2": "2 66945  53.1594 343.1211 0001247  95.3522 235.0529 15.56513660  4169"}}, "geometry": {"type": "Point", "coordinates": [-47.165910571935136, -32.67914944768203]}}, {"type": "Feature", "properties": {"norad_id": 66946, "name": "STARLINK-36115", "group": "last-30-days", "lat": -31.326399610633374, "lon": -45.57327845280298, "alt_km": 406.5081945941274, "timestamp": "2025-12-26T13:39:17.666990+00:00", "meta": {"OBJECT_NAME": "STARLINK-36115", "OBJECT_ID": "2025-286X", "EPOCH": "2025-12-26T06:00:02.999808", "MEAN_MOTION": 15.56511505, "ECCENTRICITY": 0.00012512, "INCLINATION": 53.1595, "RA_OF_ASC_NODE": 343.1169, "ARG_OF_PERICENTER": 94.4322, "MEAN_ANOMALY": 237.891, "EPHEMERIS_TYPE": 0, "CLASSIFICATION_TYPE": "U", "NORAD_CAT_ID": 66946, "ELEMENT_SET_NO": 999, "REV_AT_EPOCH": 416, "BSTAR": -0.031896495, "MEAN_MOTION_DOT": -0.02054664, "MEAN_MOTION_DDOT": 0}, "tle": {"line1": "1 66946U 25286X   25360.25003472 -.02054664  00000+0 -31896-1 0  9999", "line2": "2 66946  53.1595 343.1169 0001251  94.4322 237.8910 15.56511505  4166"}}, "geometry": {"type": "Point", "coordinates": [-45.57327845280298, -31.326399610633374]}}, {"type": "Feature", "properties": {"norad_id": 66947, "name": "STARLINK-36089", "group": "last-30-days", "lat": -28.563357911960118, "lon": -42.520697281964466, "alt_km": 406.26518008920084, "timestamp": "2025-12-26T13:39:17.667000+00:00", "meta": {"OBJECT_NAME": "STARLINK-36089", "OBJECT_ID": "2025-286Y", "EPOCH": "2025-12-26T06:00:02.999808", "MEAN_MOTION": 15.56514249, "ECCENTRICITY": 0.0001221, "INCLINATION": 53.1593, "RA_OF_ASC_NODE": 343.1083, "ARG_OF_PERICENTER": 93.4688, "MEAN_ANOMALY": 242.6874, "EPHEMERIS_TYPE": 0, "CLASSIFICATION_TYPE": "U", "NORAD_CAT_ID": 66947, "ELEMENT_SET_NO": 999, "REV_AT_EPOCH": 416, "BSTAR": -0.031960645, "MEAN_MOTION_DOT": -0.02058523, "MEAN_MOTION_DDOT": 0}, "tle": {"line1": "1 66947U 25286Y   25360.25003472 -.02058523  00000+0 -31961-1 0  9991", "line2": "2 66947  53.1593 343.1083 0001221  93.4688 242.6874 15.56514249  4162"}}, "geometry": {"type": "Point", "coordinates": [-42.520697281964466, -28.563357911960118]}}, {"type": "Feature", "properties": {"norad_id": 66948, "name": "STARLINK-36116", "group": "last-30-days", "lat": -29.953396467391396, "lon": -44.02557153222501, "alt_km": 406.3849783449077, "timestamp": "2025-12-26T13:39:17.667009+00:00", "meta": {"OBJECT_NAME": "STARLINK-36116", "OBJECT_ID": "2025-286Z", "EPOCH": "2025-12-26T06:00:02.999808", "MEAN_MOTION": 15.56511862, "ECCENTRICITY": 0.0001221, "INCLINATION": 53.1591, "RA_OF_ASC_NODE": 343.1127, "ARG_OF_PERICENTER": 94.2101, "MEAN_ANOMALY": 240.0304, "EPHEMERIS_TYPE": 0, "CLASSIFICATION_TYPE": "U", "NORAD_CAT_ID": 66948, "ELEMENT_SET_NO": 999, "REV_AT_EPOCH": 416, "BSTAR": -0.031909964, "MEAN_MOTION_DOT": -0.02055445, "MEAN_MOTION_DDOT": 0}, "tle": {"line1": "1 66948U 25286Z   25360.25003472 -.02055445  00000+0 -31910-1 0  9996", "line2": "2 66948  53.1591 343.1127 0001221  94.2101 240.0304 15.56511862  4167"}}, "geometry": {"type": "Point", "coordinates": [-44.02557153222501, -29.953396467391396]}}]}